{"fetched_at":"2026-03-29T16:36:15Z","count":15609,"tles":[{"name":"STARLINK-30291","line1":"1 57856U 23141S   26087.79439921  .00000706  00000+0  35940-4 0  9996","line2":"2 57856  53.1606 195.3386 0000785  88.1218 271.9873 15.30203774143251","category":"Starlink"}]}